OBJECT_NAME,OBJECT_ID,EPOCH,MEAN_MOTION,ECCENTRICITY,INCLINATION,RA_OF_ASC_NODE,ARG_OF_PERICENTER,MEAN_ANOMALY,EPHEMERIS_TYPE,CLASSIFICATION_TYPE,NORAD_CAT_ID,ELEMENT_SET_NO,REV_AT_EPOCH,BSTAR,MEAN_MOTION_DOT,MEAN_MOTION_DDOT
STARLINK-36478,2026-003T,2026-06-28T16:32:48.985440,15.27604071,.00027027,43.0019,319.8717,279.8763,80.1783,0,U,67351,999,2580,.71251886E-3,.19412E-3,0
STARLINK-36479,2026-003U,2026-06-28T17:57:43.499232,15.27595754,.00013948,43.0008,319.4550,270.2110,89.8582,0,U,67352,999,2581,.56570943E-3,.15345E-3,0
STARLINK-36474,2026-003V,2026-06-28T17:52:23.111616,15.27594916,.00014805,42.9997,320.2966,276.1640,83.9043,0,U,67353,999,2580,.88966943E-3,.24312E-3,0
STARLINK-36448,2026-003W,2026-06-28T18:49:32.029536,15.27596153,.00018262,43.0032,319.7284,270.7176,89.3467,0,U,67354,999,2581,.60088255E-3,.16318E-3,0
STARLINK-36477,2026-003X,2026-06-28T17:46:50.172672,15.27591460,.00012939,43.0004,320.2691,283.6478,76.4230,0,U,67355,999,2580,.66942548E-3,.18211E-3,0
STARLINK-36429,2026-003Y,2026-06-28T17:41:17.447136,15.27592458,.0001113,43.0002,320.2364,273.8986,86.1739,0,U,67356,999,2580,.56896601E-3,.15433E-3,0
STARLINK-36456,2026-003Z,2026-06-29T08:51:23.690016,15.27592701,.0002029,42.9996,316.3776,265.1553,94.9067,0,U,67357,999,2590,.92751E-3,.25359E-3,0
STARLINK-36466,2026-003AA,2026-06-28T18:12:30.930912,15.27597273,.00021758,43.0006,319.5302,267.8018,92.2584,0,U,67358,999,2581,.97370674E-3,.26644E-3,0
STARLINK-36499,2026-003AB,2026-06-28T17:54:14.222880,15.27591802,.00013494,43.0024,320.3069,280.0783,79.9917,0,U,67359,999,2580,.64225613E-3,.1746E-3,0
STARLINK-36469,2026-003AC,2026-06-28T16:14:31.738272,15.27598245,.00006482,42.9998,320.6443,263.5928,96.4850,0,U,67360,999,2579,.76300721E-3,.20805E-3,0
STARLINK-35306,2026-003AD,2026-06-28T18:34:43.916160,15.27595014,.0001279,43.0042,319.6486,268.6556,91.4149,0,U,67361,999,2581,.82369748E-3,.22484E-3,0
STARLINK-36428,2026-003AE,2026-06-28T18:31:01.816320,15.27596634,.00013453,43.0049,319.6266,262.1958,97.8741,0,U,67362,999,2581,.71930832E-3,.19594E-3,0
STARLINK-36484,2026-005A,2026-06-28T19:20:44.329632,15.27568137,.00020007,43.0040,330.1780,280.0344,80.0282,0,U,67404,999,2569,.58444666E-3,.15849E-3,0
STARLINK-36452,2026-005B,2026-06-28T03:31:46.370208,15.27581220,.00003615,42.9996,333.8246,50.4261,309.6622,0,U,67405,999,2559,.31058658E-3,.8295E-4,0
STARLINK-36409,2026-005C,2026-06-28T20:06:58.961088,15.27599008,.00016101,43.0013,330.4193,272.3939,87.6729,0,U,67406,999,2569,.11115523E-2,.3047E-3,0
STARLINK-36510,2026-005D,2026-06-28T19:57:43.997472,15.27595209,.00016237,43.0023,330.3663,274.4345,85.6321,0,U,67407,999,2569,.57741521E-3,.15668E-3,0
STARLINK-36509,2026-005E,2026-06-28T19:35:31.969536,15.27567697,.00021876,43.0038,330.2504,279.0451,81.0153,0,U,67408,999,2568,.72915121E-3,.19849E-3,0
STARLINK-36507,2026-005F,2026-06-28T18:43:55.715808,15.27587414,.00013068,43.0006,330.8435,274.7356,85.3346,0,U,67409,999,2568,.60606052E-3,.16456E-3,0
STARLINK-36508,2026-005G,2026-06-28T17:24:34.788096,15.27604400,.00010334,43.0022,331.2900,272.9932,87.0801,0,U,67410,999,2567,.89125661E-3,.24362E-3,0
STARLINK-36503,2026-005H,2026-06-28T18:06:55.379232,15.27593589,.00017596,43.0028,330.6430,271.3926,88.6724,0,U,67411,999,2568,.66988795E-3,.18225E-3,0
STARLINK-36446,2026-005J,2026-06-28T21:24:29.486880,15.27595910,.00015903,42.9989,329.9549,259.2297,100.8376,0,U,67412,999,2570,.60079812E-3,.16315E-3,0
STARLINK-36442,2026-005K,2026-06-28T11:33:39.746592,15.27611874,.00020959,43.0010,332.0344,257.7814,102.2803,0,U,67413,999,2564,.88478981E-3,.24189E-3,0
STARLINK-36506,2026-005L,2026-06-28T11:41:02.198400,15.27590700,.00016813,43.0021,332.0686,249.1483,110.9188,0,U,67414,999,2564,.20291031E-3,.5327E-4,0
STARLINK-36468,2026-005M,2026-06-28T17:20:52.711584,15.27600469,.00001859,43.0025,331.2662,42.8775,317.2091,0,U,67415,999,2567,.74067145E-3,.20188E-3,0
STARLINK-36487,2026-005N,2026-06-28T18:47:37.991904,15.27573696,.00015422,43.0009,330.8601,284.5106,75.5574,0,U,67416,999,2568,.9719581E-3,.26575E-3,0
STARLINK-36374,2026-005P,2026-06-28T20:03:17.293248,15.27590299,.00016152,43.0011,330.3938,280.5491,79.5179,0,U,67417,999,2569,.82939255E-3,.22638E-3,0
STARLINK-36455,2026-005Q,2026-06-28T19:52:10.718976,15.27599251,.0001932,43.0020,330.3311,276.6634,83.3998,0,U,67418,999,2569,.52454692E-3,.14209E-3,0
STARLINK-36424,2026-005R,2026-06-28T19:29:58.469856,15.27596457,.00018121,43.0037,330.2184,265.1680,94.8965,0,U,67419,999,2569,.91365087E-3,.24978E-3,0
STARLINK-35564,2026-005S,2026-06-28T16:51:16.390656,15.27605649,.00015192,43.0009,331.1091,269.7454,90.3224,0,U,67420,999,2567,.10866511E-2,.29785E-3,0
STARLINK-36431,2026-005T,2026-06-28T18:53:10.660416,15.27599972,.00014753,43.0025,330.8890,277.9936,82.0748,0,U,67421,999,2568,.55850129E-3,.15148E-3,0
