[
  {
    "name": "STARLINK-36478",
    "noradId": "67351",
    "line1": "1 67351U 26003T   26179.68945585  .00019412  00000+0  71252-3 0  9994",
    "line2": "2 67351  43.0019 319.8717 0002702 279.8763  80.1783 15.27604071 25805"
  },
  {
    "name": "STARLINK-36479",
    "noradId": "67352",
    "line1": "1 67352U 26003U   26179.74842013  .00015345  00000+0  56571-3 0  9992",
    "line2": "2 67352  43.0008 319.4550 0001394 270.2110  89.8582 15.27595754 25813"
  },
  {
    "name": "STARLINK-36474",
    "noradId": "67353",
    "line1": "1 67353U 26003V   26179.74471194  .00024312  00000+0  88967-3 0  9999",
    "line2": "2 67353  42.9997 320.2966 0001480 276.1640  83.9043 15.27594916 25804"
  },
  {
    "name": "STARLINK-36448",
    "noradId": "67354",
    "line1": "1 67354U 26003W   26179.78439849  .00016318  00000+0  60088-3 0  9996",
    "line2": "2 67354  43.0032 319.7284 0001826 270.7176  89.3467 15.27596153 25817"
  },
  {
    "name": "STARLINK-36477",
    "noradId": "67355",
    "line1": "1 67355U 26003X   26179.74085848  .00018211  00000+0  66943-3 0  9999",
    "line2": "2 67355  43.0004 320.2691 0001293 283.6478  76.4230 15.27591460 25802"
  },
  {
    "name": "STARLINK-36429",
    "noradId": "67356",
    "line1": "1 67356U 26003Y   26179.73700749  .00015433  00000+0  56897-3 0  9993",
    "line2": "2 67356  43.0002 320.2364 0001113 273.8986  86.1739 15.27592458 25804"
  },
  {
    "name": "STARLINK-36456",
    "noradId": "67357",
    "line1": "1 67357U 26003Z   26180.36902419  .00025359  00000+0  92751-3 0  9990",
    "line2": "2 67357  42.9996 316.3776 0002029 265.1553  94.9067 15.27592701 25902"
  },
  {
    "name": "STARLINK-36466",
    "noradId": "67358",
    "line1": "1 67358U 26003AA  26179.75869133  .00026644  00000+0  97371-3 0  9998",
    "line2": "2 67358  43.0006 319.5302 0002175 267.8018  92.2584 15.27597273 25818"
  },
  {
    "name": "STARLINK-36499",
    "noradId": "67359",
    "line1": "1 67359U 26003AB  26179.74599795  .00017460  00000+0  64226-3 0  9991",
    "line2": "2 67359  43.0024 320.3069 0001349 280.0783  79.9917 15.27591802 25800"
  },
  {
    "name": "STARLINK-36469",
    "noradId": "67360",
    "line1": "1 67360U 26003AC  26179.67675623  .00020805  00000+0  76301-3 0  9994",
    "line2": "2 67360  42.9998 320.6443 0000648 263.5928  96.4850 15.27598245 25793"
  },
  {
    "name": "STARLINK-35306",
    "noradId": "67361",
    "line1": "1 67361U 26003AD  26179.77411940  .00022484  00000+0  82370-3 0  9994",
    "line2": "2 67361  43.0042 319.6486 0001279 268.6556  91.4149 15.27595014 25815"
  },
  {
    "name": "STARLINK-36428",
    "noradId": "67362",
    "line1": "1 67362U 26003AE  26179.77154880  .00019594  00000+0  71931-3 0  9991",
    "line2": "2 67362  43.0049 319.6266 0001345 262.1958  97.8741 15.27596634 25815"
  },
  {
    "name": "STARLINK-36484",
    "noradId": "67404",
    "line1": "1 67404U 26005A   26179.80606863  .00015849  00000+0  58445-3 0  9991",
    "line2": "2 67404  43.0040 330.1780 0002000 280.0344  80.0282 15.27568137 25696"
  },
  {
    "name": "STARLINK-36452",
    "noradId": "67405",
    "line1": "1 67405U 26005B   26179.14706447  .00008295  00000+0  31059-3 0  9997",
    "line2": "2 67405  42.9996 333.8246 0000361  50.4261 309.6622 15.27581220 25592"
  },
  {
    "name": "STARLINK-36409",
    "noradId": "67406",
    "line1": "1 67406U 26005C   26179.83818242  .00030470  00000+0  11116-2 0  9992",
    "line2": "2 67406  43.0013 330.4193 0001610 272.3939  87.6729 15.27599008 25699"
  },
  {
    "name": "STARLINK-36510",
    "noradId": "67407",
    "line1": "1 67407U 26005D   26179.83175923  .00015668  00000+0  57742-3 0  9993",
    "line2": "2 67407  43.0023 330.3663 0001623 274.4345  85.6321 15.27595209 25695"
  },
  {
    "name": "STARLINK-36509",
    "noradId": "67408",
    "line1": "1 67408U 26005E   26179.81634224  .00019849  00000+0  72915-3 0  9990",
    "line2": "2 67408  43.0038 330.2504 0002187 279.0451  81.0153 15.27567697 25682"
  },
  {
    "name": "STARLINK-36507",
    "noradId": "67409",
    "line1": "1 67409U 26005F   26179.78050597  .00016456  00000+0  60606-3 0  9997",
    "line2": "2 67409  43.0006 330.8435 0001306 274.7356  85.3346 15.27587414 25685"
  },
  {
    "name": "STARLINK-36508",
    "noradId": "67410",
    "line1": "1 67410U 26005G   26179.72540264  .00024362  00000+0  89126-3 0  9991",
    "line2": "2 67410  43.0022 331.2900 0001033 272.9932  87.0801 15.27604400 25673"
  },
  {
    "name": "STARLINK-36503",
    "noradId": "67411",
    "line1": "1 67411U 26005H   26179.75480763  .00018225  00000+0  66989-3 0  9995",
    "line2": "2 67411  43.0028 330.6430 0001759 271.3926  88.6724 15.27593589 25689"
  },
  {
    "name": "STARLINK-36446",
    "noradId": "67412",
    "line1": "1 67412U 26005J   26179.89200795  .00016315  00000+0  60080-3 0  9990",
    "line2": "2 67412  42.9989 329.9549 0001590 259.2297 100.8376 15.27595910 25708"
  },
  {
    "name": "STARLINK-36442",
    "noradId": "67413",
    "line1": "1 67413U 26005K   26179.48171003  .00024189  00000+0  88479-3 0  9995",
    "line2": "2 67413  43.0010 332.0344 0002095 257.7814 102.2803 15.27611874 25645"
  },
  {
    "name": "STARLINK-36506",
    "noradId": "67414",
    "line1": "1 67414U 26005L   26179.48683100  .00005327  00000+0  20291-3 0  9993",
    "line2": "2 67414  43.0021 332.0686 0001681 249.1483 110.9188 15.27590700 25640"
  },
  {
    "name": "STARLINK-36468",
    "noradId": "67415",
    "line1": "1 67415U 26005M   26179.72283231  .00020188  00000+0  74067-3 0  9994",
    "line2": "2 67415  43.0025 331.2662 0000185  42.8775 317.2091 15.27600469 25672"
  },
  {
    "name": "STARLINK-36487",
    "noradId": "67416",
    "line1": "1 67416U 26005N   26179.78307861  .00026575  00000+0  97196-3 0  9991",
    "line2": "2 67416  43.0009 330.8601 0001542 284.5106  75.5574 15.27573696 25686"
  },
  {
    "name": "STARLINK-36374",
    "noradId": "67417",
    "line1": "1 67417U 26005P   26179.83561682  .00022638  00000+0  82939-3 0  9996",
    "line2": "2 67417  43.0011 330.3938 0001615 280.5491  79.5179 15.27590299 25696"
  },
  {
    "name": "STARLINK-36455",
    "noradId": "67418",
    "line1": "1 67418U 26005Q   26179.82790184  .00014209  00000+0  52455-3 0  9992",
    "line2": "2 67418  43.0020 330.3311 0001932 276.6634  83.3998 15.27599251 25698"
  },
  {
    "name": "STARLINK-36424",
    "noradId": "67419",
    "line1": "1 67419U 26005R   26179.81248229  .00024978  00000+0  91365-3 0  9997",
    "line2": "2 67419  43.0037 330.2184 0001812 265.1680  94.8965 15.27596457 25691"
  },
  {
    "name": "STARLINK-35564",
    "noradId": "67420",
    "line1": "1 67420U 26005S   26179.70227304  .00029785  00000+0  10867-2 0  9996",
    "line2": "2 67420  43.0009 331.1091 0001519 269.7454  90.3224 15.27605649 25673"
  },
  {
    "name": "STARLINK-36431",
    "noradId": "67421",
    "line1": "1 67421U 26005T   26179.78692894  .00015148  00000+0  55850-3 0  9995",
    "line2": "2 67421  43.0025 330.8890 0001475 277.9936  82.0748 15.27599972 25683"
  }
]